CCSDS_OMM_VERS = 2.0
CREATION_DATE  = 
ORIGINATOR     = 

OBJECT_NAME    = DELTA 2 R/B(1)
OBJECT_ID      = 1990-008B
CENTER_NAME    = EARTH
REF_FRAME      = TEME
TIME_SYSTEM    = UTC
MEAN_ELEMENT_THEORY = SGP/SGP4

EPOCH          = 2025-12-19T15:54:11.328768
MEAN_MOTION    = 15.45752274
ECCENTRICITY   = .01112297
INCLINATION    = 35.6080
RA_OF_ASC_NODE = 335.8092
ARG_OF_PERICENTER = 241.4379
MEAN_ANOMALY   = 117.5121

EPHEMERIS_TYPE = 0
CLASSIFICATION_TYPE = U
NORAD_CAT_ID   = 20453
ELEMENT_SET_NO = 999
REV_AT_EPOCH   = 91370
BSTAR          = .49463665E-3
MEAN_MOTION_DOT = .31465E-3
MEAN_MOTION_DDOT = 0

CCSDS_OMM_VERS = 2.0
CREATION_DATE  = 
ORIGINATOR     = 

OBJECT_NAME    = COSMOS 2058
OBJECT_ID      = 1990-010A
CENTER_NAME    = EARTH
REF_FRAME      = TEME
TIME_SYSTEM    = UTC
MEAN_ELEMENT_THEORY = SGP/SGP4

EPOCH          = 2025-12-19T18:43:03.010944
MEAN_MOTION    = 15.10536455
ECCENTRICITY   = .00088931
INCLINATION    = 82.4695
RA_OF_ASC_NODE = 126.1057
ARG_OF_PERICENTER = 244.5566
MEAN_ANOMALY   = 115.4744

EPHEMERIS_TYPE = 0
CLASSIFICATION_TYPE = U
NORAD_CAT_ID   = 20465
ELEMENT_SET_NO = 999
REV_AT_EPOCH   = 93017
BSTAR          = .23526142E-3
MEAN_MOTION_DOT = .3909E-4
MEAN_MOTION_DDOT = 0

CCSDS_OMM_VERS = 2.0
CREATION_DATE  = 
ORIGINATOR     = 

OBJECT_NAME    = SL-14 R/B
OBJECT_ID      = 1990-010B
CENTER_NAME    = EARTH
REF_FRAME      = TEME
TIME_SYSTEM    = UTC
MEAN_ELEMENT_THEORY = SGP/SGP4

EPOCH          = 2025-12-19T23:06:18.069696
MEAN_MOTION    = 14.83477506
ECCENTRICITY   = .00192425
INCLINATION    = 82.5019
RA_OF_ASC_NODE = 342.2629
ARG_OF_PERICENTER = 198.2636
MEAN_ANOMALY   = 161.7890

EPHEMERIS_TYPE = 0
CLASSIFICATION_TYPE = U
NORAD_CAT_ID   = 20466
ELEMENT_SET_NO = 999
REV_AT_EPOCH   = 91666
BSTAR          = .37500344E-4
MEAN_MOTION_DOT = .333E-5
MEAN_MOTION_DDOT = 0

CCSDS_OMM_VERS = 2.0
CREATION_DATE  = 
ORIGINATOR     = 

OBJECT_NAME    = SL-14 R/B
OBJECT_ID      = 1990-018B
CENTER_NAME    = EARTH
REF_FRAME      = TEME
TIME_SYSTEM    = UTC
MEAN_ELEMENT_THEORY = SGP/SGP4

EPOCH          = 2025-12-19T21:41:32.332416
MEAN_MOTION    = 14.82053578
ECCENTRICITY   = .00163831
INCLINATION    = 82.5215
RA_OF_ASC_NODE = 297.6686
ARG_OF_PERICENTER = 0.3373
MEAN_ANOMALY   = 359.7849

EPHEMERIS_TYPE = 0
CLASSIFICATION_TYPE = U
NORAD_CAT_ID   = 20511
ELEMENT_SET_NO = 999
REV_AT_EPOCH   = 91076
BSTAR          = .43412014E-4
MEAN_MOTION_DOT = .369E-5
MEAN_MOTION_DDOT = 0

CCSDS_OMM_VERS = 2.0
CREATION_DATE  = 
ORIGINATOR     = 

OBJECT_NAME    = HST
OBJECT_ID      = 1990-037B
CENTER_NAME    = EARTH
REF_FRAME      = TEME
TIME_SYSTEM    = UTC
MEAN_ELEMENT_THEORY = SGP/SGP4

EPOCH          = 2025-12-18T00:24:16.230528
MEAN_MOTION    = 15.28122531
ECCENTRICITY   = .00019515
INCLINATION    = 28.4674
RA_OF_ASC_NODE = 236.5696
ARG_OF_PERICENTER = 306.2372
MEAN_ANOMALY   = 53.8043

EPHEMERIS_TYPE = 0
CLASSIFICATION_TYPE = U
NORAD_CAT_ID   = 20580
ELEMENT_SET_NO = 999
REV_AT_EPOCH   = 76080
BSTAR          = .19129847E-3
MEAN_MOTION_DOT = .5621E-4
MEAN_MOTION_DDOT = 0

CCSDS_OMM_VERS = 2.0
CREATION_DATE  = 
ORIGINATOR     = 

OBJECT_NAME    = SL-16 R/B
OBJECT_ID      = 1990-046B
CENTER_NAME    = EARTH
REF_FRAME      = TEME
TIME_SYSTEM    = UTC
MEAN_ELEMENT_THEORY = SGP/SGP4

EPOCH          = 2025-12-19T11:04:49.797408
MEAN_MOTION    = 14.14999291
ECCENTRICITY   = .0011991
INCLINATION    = 70.9993
RA_OF_ASC_NODE = 106.4053
ARG_OF_PERICENTER = 61.3446
MEAN_ANOMALY   = 298.8881

EPHEMERIS_TYPE = 0
CLASSIFICATION_TYPE = U
NORAD_CAT_ID   = 20625
ELEMENT_SET_NO = 999
REV_AT_EPOCH   = 83704
BSTAR          = -.12211E-3
MEAN_MOTION_DOT = -.284E-5
MEAN_MOTION_DDOT = 0

CCSDS_OMM_VERS = 2.0
CREATION_DATE  = 
ORIGINATOR     = 

OBJECT_NAME    = COSMOS 2084
OBJECT_ID      = 1990-055A
CENTER_NAME    = EARTH
REF_FRAME      = TEME
TIME_SYSTEM    = UTC
MEAN_ELEMENT_THEORY = SGP/SGP4

EPOCH          = 2025-12-19T17:50:56.224320
MEAN_MOTION    = 15.05058322
ECCENTRICITY   = .00305939
INCLINATION    = 62.7899
RA_OF_ASC_NODE = 248.1277
ARG_OF_PERICENTER = 175.6163
MEAN_ANOMALY   = 184.5211

EPHEMERIS_TYPE = 0
CLASSIFICATION_TYPE = U
NORAD_CAT_ID   = 20663
ELEMENT_SET_NO = 999
REV_AT_EPOCH   = 92428
BSTAR          = .14442546E-3
MEAN_MOTION_DOT = .1876E-4
MEAN_MOTION_DDOT = 0

CCSDS_OMM_VERS = 2.0
CREATION_DATE  = 
ORIGINATOR     = 

OBJECT_NAME    = SL-6 R/B(2)
OBJECT_ID      = 1990-055D
CENTER_NAME    = EARTH
REF_FRAME      = TEME
TIME_SYSTEM    = UTC
MEAN_ELEMENT_THEORY = SGP/SGP4

EPOCH          = 2025-12-19T21:15:31.054176
MEAN_MOTION    = 15.03103714
ECCENTRICITY   = .00134715
INCLINATION    = 62.7810
RA_OF_ASC_NODE = 165.1338
ARG_OF_PERICENTER = 313.7550
MEAN_ANOMALY   = 46.2433

EPHEMERIS_TYPE = 0
CLASSIFICATION_TYPE = U
NORAD_CAT_ID   = 20666
ELEMENT_SET_NO = 999
REV_AT_EPOCH   = 92619
BSTAR          = .11987539E-3
MEAN_MOTION_DOT = .1429E-4
MEAN_MOTION_DDOT = 0

CCSDS_OMM_VERS = 2.0
CREATION_DATE  = 
ORIGINATOR     = 

OBJECT_NAME    = SL-8 R/B
OBJECT_ID      = 1990-078B
CENTER_NAME    = EARTH
REF_FRAME      = TEME
TIME_SYSTEM    = UTC
MEAN_ELEMENT_THEORY = SGP/SGP4

EPOCH          = 2025-12-19T20:50:19.006656
MEAN_MOTION    = 14.86203184
ECCENTRICITY   = .0370851
INCLINATION    = 82.9047
RA_OF_ASC_NODE = 322.9273
ARG_OF_PERICENTER = 281.9111
MEAN_ANOMALY   = 74.0759

EPHEMERIS_TYPE = 0
CLASSIFICATION_TYPE = U
NORAD_CAT_ID   = 20775
ELEMENT_SET_NO = 999
REV_AT_EPOCH   = 79743
BSTAR          = .43121783E-3
MEAN_MOTION_DOT = .13953E-3
MEAN_MOTION_DDOT = 0

CCSDS_OMM_VERS = 2.0
CREATION_DATE  = 
ORIGINATOR     = 

OBJECT_NAME    = SL-8 R/B
OBJECT_ID      = 1991-006B
CENTER_NAME    = EARTH
REF_FRAME      = TEME
TIME_SYSTEM    = UTC
MEAN_ELEMENT_THEORY = SGP/SGP4

EPOCH          = 2025-12-19T22:21:27.164160
MEAN_MOTION    = 13.77491253
ECCENTRICITY   = .00211772
INCLINATION    = 82.9420
RA_OF_ASC_NODE = 229.3635
ARG_OF_PERICENTER = 258.4327
MEAN_ANOMALY   = 111.6851

EPHEMERIS_TYPE = 0
CLASSIFICATION_TYPE = U
NORAD_CAT_ID   = 21088
ELEMENT_SET_NO = 999
REV_AT_EPOCH   = 75309
BSTAR          = .91524607E-4
MEAN_MOTION_DOT = .106E-5
MEAN_MOTION_DDOT = 0

CCSDS_OMM_VERS = 2.0
CREATION_DATE  = 
ORIGINATOR     = 

OBJECT_NAME    = OKEAN-3
OBJECT_ID      = 1991-039A
CENTER_NAME    = EARTH
REF_FRAME      = TEME
TIME_SYSTEM    = UTC
MEAN_ELEMENT_THEORY = SGP/SGP4

EPOCH          = 2025-12-19T14:25:06.049344
MEAN_MOTION    = 15.04163296
ECCENTRICITY   = .0013436
INCLINATION    = 82.5178
RA_OF_ASC_NODE = 54.4073
ARG_OF_PERICENTER = 239.9462
MEAN_ANOMALY   = 120.0432

EPHEMERIS_TYPE = 0
CLASSIFICATION_TYPE = U
NORAD_CAT_ID   = 21397
ELEMENT_SET_NO = 999
REV_AT_EPOCH   = 85299
BSTAR          = .15833E-3
MEAN_MOTION_DOT = .2228E-4
MEAN_MOTION_DDOT = 0

CCSDS_OMM_VERS = 2.0
CREATION_DATE  = 
ORIGINATOR     = 

OBJECT_NAME    = COSMOS 2151
OBJECT_ID      = 1991-042A
CENTER_NAME    = EARTH
REF_FRAME      = TEME
TIME_SYSTEM    = UTC
MEAN_ELEMENT_THEORY = SGP/SGP4

EPOCH          = 2025-12-19T21:30:03.995712
MEAN_MOTION    = 14.99711415
ECCENTRICITY   = .00119649
INCLINATION    = 82.4962
RA_OF_ASC_NODE = 160.6069
ARG_OF_PERICENTER = 335.0255
MEAN_ANOMALY   = 25.0388

EPHEMERIS_TYPE = 0
CLASSIFICATION_TYPE = U
NORAD_CAT_ID   = 21422
ELEMENT_SET_NO = 999
REV_AT_EPOCH   = 85123
BSTAR          = .11502211E-3
MEAN_MOTION_DOT = .1447E-4
MEAN_MOTION_DDOT = 0

